[{"OBJECT_NAME":"HULIANWANG DIGUI-50","OBJECT_ID":"2025-168B","EPOCH":"2026-03-09T23:47:01.964544","MEAN_MOTION":13.29340014,"ECCENTRICITY":0.00084394,"INCLINATION":50.0015,"RA_OF_ASC_NODE":321.6125,"ARG_OF_PERICENTER":152.0578,"MEAN_ANOMALY":208.0748,"EPHEMERIS_TYPE":0,"CLASSIFICATION_TYPE":"U","NORAD_CAT_ID":65107,"ELEMENT_SET_NO":999,"REV_AT_EPOCH":2949,"BSTAR":0.00015883458,"MEAN_MOTION_DOT":-5.0e-7,"MEAN_MOTION_DDOT":0},{"OBJECT_NAME":"NIMBUS 2 DEB","OBJECT_ID":"1966-040N","EPOCH":"2026-03-09T05:16:33.566880","MEAN_MOTION":13.25801539,"ECCENTRICITY":0.00550853,"INCLINATION":99.6367,"RA_OF_ASC_NODE":158.8756,"ARG_OF_PERICENTER":226.7961,"MEAN_ANOMALY":190.019,"EPHEMERIS_TYPE":0,"CLASSIFICATION_TYPE":"U","NORAD_CAT_ID":28200,"ELEMENT_SET_NO":999,"REV_AT_EPOCH":11840,"BSTAR":-0.001975925,"MEAN_MOTION_DOT":-9.14e-6,"MEAN_MOTION_DDOT":0}]
